KUIPER-00157            
1 65970U 25228Z   25317.56003992  .00103861  00000+0  30066-2 0  9993
2 65970  51.8806 161.2340 0005745 268.9960  91.0368 15.34735953  5934
